[{"OBJECT_NAME":"STARLINK-3291","OBJECT_ID":"2021-125V","EPOCH":"2026-03-09T16:57:13.404096","MEAN_MOTION":15.08837256,"ECCENTRICITY":0.00013431,"INCLINATION":53.2169,"RA_OF_ASC_NODE":249.0469,"ARG_OF_PERICENTER":88.267,"MEAN_ANOMALY":271.8476,"EPHEMERIS_TYPE":0,"CLASSIFICATION_TYPE":"U","NORAD_CAT_ID":50175,"ELEMENT_SET_NO":999,"REV_AT_EPOCH":23660,"BSTAR":1.9004859e-5,"MEAN_MOTION_DOT":1.5e-7,"MEAN_MOTION_DDOT":0},{"OBJECT_NAME":"MINOTAUR 4 R\/B","OBJECT_ID":"2020-046E","EPOCH":"2026-03-09T23:21:28.488960","MEAN_MOTION":15.06543892,"ECCENTRICITY":0.00095926,"INCLINATION":53.9792,"RA_OF_ASC_NODE":306.0413,"ARG_OF_PERICENTER":86.078,"MEAN_ANOMALY":274.1318,"EPHEMERIS_TYPE":0,"CLASSIFICATION_TYPE":"U","NORAD_CAT_ID":45877,"ELEMENT_SET_NO":999,"REV_AT_EPOCH":23396,"BSTAR":0.00016618262,"MEAN_MOTION_DOT":2.204e-5,"MEAN_MOTION_DDOT":0}]
